{
  "type": "FeatureCollection",
  "features": [
    {
      "type": "Feature",
      "properties": {
        "norad_id": 66861,
        "name": "STARLINK-35991",
        "group": "last-30-days",
        "lat": 4.549955510593516,
        "lon": -82.39724974292183,
        "alt_km": 322.68093937732465,
        "timestamp": "2025-12-15T22:44:27.662080+00:00",
        "meta_object_name": "STARLINK-35991",
        "meta_object_id": "2025-281P",
        "meta_epoch": "2025-12-15T06:00:04.999968",
        "meta_mean_motion": 15.84581912,
        "meta_eccentricity": 0.00015033,
        "meta_inclination": 43.0004,
        "meta_ra_of_asc_node": 106.7876,
        "meta_arg_of_pericenter": 268.2037,
        "meta_mean_anomaly": 243.983,
        "meta_ephemeris_type": 0,
        "meta_classification_type": "U",
        "meta_norad_cat_id": 66861,
        "meta_element_set_no": 999,
        "meta_rev_at_epoch": 180,
        "meta_bstar": -0.006530086,
        "meta_mean_motion_dot": -0.01360042,
        "meta_mean_motion_ddot": 0,
        "tle_line1": "1 66861U 25281P   25349.25005787 -.01360042  00000+0 -65301-2 0  9996",
        "tle_line2": "2 66861  43.0004 106.7876 0001503 268.2037 243.9830 15.84581912  1804"
      },
      "geometry": {
        "type": "Point",
        "coordinates": [
          -82.39724974292183,
          4.549955510593516
        ]
      }
    },
    {
      "type": "Feature",
      "properties": {
        "norad_id": 66862,
        "name": "STARLINK-35974",
        "group": "last-30-days",
        "lat": 6.358013084656172,
        "lon": -84.35909838374602,
        "alt_km": 322.46042604370905,
        "timestamp": "2025-12-15T22:44:27.662090+00:00",
        "meta_object_name": "STARLINK-35974",
        "meta_object_id": "2025-281Q",
        "meta_epoch": "2025-12-15T06:00:04.999968",
        "meta_mean_motion": 15.84605068,
        "meta_eccentricity": 0.00014713,
        "meta_inclination": 43.0003,
        "meta_ra_of_asc_node": 106.7947,
        "meta_arg_of_pericenter": 274.1585,
        "meta_mean_anomaly": 235.2483,
        "meta_ephemeris_type": 0,
        "meta_classification_type": "U",
        "meta_norad_cat_id": 66862,
        "meta_element_set_no": 999,
        "meta_rev_at_epoch": 170,
        "meta_bstar": -0.006383427,
        "meta_mean_motion_dot": -0.01334586,
        "meta_mean_motion_ddot": 0,
        "tle_line1": "1 66862U 25281Q   25349.25005787 -.01334586  00000+0 -63834-2 0  9990",
        "tle_line2": "2 66862  43.0003 106.7947 0001471 274.1585 235.2483 15.84605068  1707"
      },
      "geometry": {
        "type": "Point",
        "coordinates": [
          -84.35909838374602,
          6.358013084656172
        ]
      }
    },
    {
      "type": "Feature",
      "properties": {
        "norad_id": 66863,
        "name": "STARLINK-36134",
        "group": "last-30-days",
        "lat": 2.3511566441164216,
        "lon": -80.03156021654702,
        "alt_km": 323.3079327098867,
        "timestamp": "2025-12-15T22:44:27.662102+00:00",
        "meta_object_name": "STARLINK-36134",
        "meta_object_id": "2025-281R",
        "meta_epoch": "2025-12-15T06:00:04.999968",
        "meta_mean_motion": 15.84506518,
        "meta_eccentricity": 0.00014372,
        "meta_inclination": 43.0007,
        "meta_ra_of_asc_node": 106.779,
        "meta_arg_of_pericenter": 271.6665,
        "meta_mean_anomaly": 243.985,
        "meta_ephemeris_type": 0,
        "meta_classification_type": "U",
        "meta_norad_cat_id": 66863,
        "meta_element_set_no": 999,
        "meta_rev_at_epoch": 180,
        "meta_bstar": -0.0066668865,
        "meta_mean_motion_dot": -0.01380375,
        "meta_mean_motion_ddot": 0,
        "tle_line1": "1 66863U 25281R   25349.25005787 -.01380375  00000+0 -66669-2 0  9997",
        "tle_line2": "2 66863  43.0007 106.7790 0001437 271.6665 243.9850 15.84506518  1806"
      },
      "geometry": {
        "type": "Point",
        "coordinates": [
          -80.03156021654702,
          2.3511566441164216
        ]
      }
    },
    {
      "type": "Feature",
      "properties": {
        "norad_id": 66864,
        "name": "STARLINK-36070",
        "group": "last-30-days",
        "lat": 0.631917592316438,
        "lon": -78.19116197432386,
        "alt_km": 323.59047688786814,
        "timestamp": "2025-12-15T22:44:27.662114+00:00",
        "meta_object_name": "STARLINK-36070",
        "meta_object_id": "2025-281S",
        "meta_epoch": "2025-12-15T06:00:04.999968",
        "meta_mean_motion": 15.84474562,
        "meta_eccentricity": 0.00014665,
        "meta_inclination": 43.0007,
        "meta_ra_of_asc_node": 106.772,
        "meta_arg_of_pericenter": 271.2379,
        "meta_mean_anomaly": 247.0304,
        "meta_ephemeris_type": 0,
        "meta_classification_type": "U",
        "meta_norad_cat_id": 66864,
        "meta_element_set_no": 999,
        "meta_rev_at_epoch": 183,
        "meta_bstar": -0.0067111664,
        "meta_mean_motion_dot": -0.01386495,
        "meta_mean_motion_ddot": 0,
        "tle_line1": "1 66864U 25281S   25349.25005787 -.01386495  00000+0 -67112-2 0  9991",
        "tle_line2": "2 66864  43.0007 106.7720 0001466 271.2379 247.0304 15.84474562  1835"
      },
      "geometry": {
        "type": "Point",
        "coordinates": [
          -78.19116197432386,
          0.631917592316438
        ]
      }
    },
    {
      "type": "Feature",
      "properties": {
        "norad_id": 66865,
        "name": "STARLINK-36117",
        "group": "last-30-days",
        "lat": -3.0316706276887437,
        "lon": -74.2679771285436,
        "alt_km": 324.18061554766973,
        "timestamp": "2025-12-15T22:44:27.662124+00:00",
        "meta_object_name": "STARLINK-36117",
        "meta_object_id": "2025-281T",
        "meta_epoch": "2025-12-15T06:00:04.999968",
        "meta_mean_motion": 15.8438847,
        "meta_eccentricity": 0.00014195,
        "meta_inclination": 43.0007,
        "meta_ra_of_asc_node": 106.7582,
        "meta_arg_of_pericenter": 268.7409,
        "meta_mean_anomaly": 255.1538,
        "meta_ephemeris_type": 0,
        "meta_classification_type": "U",
        "meta_norad_cat_id": 66865,
        "meta_element_set_no": 999,
        "meta_rev_at_epoch": 180,
        "meta_bstar": -0.0068267229,
        "meta_mean_motion_dot": -0.01429972,
        "meta_mean_motion_ddot": 0,
        "tle_line1": "1 66865U 25281T   25349.25005787 -.01429972  00000+0 -68267-2 0  9992",
        "tle_line2": "2 66865  43.0007 106.7582 0001419 268.7409 255.1538 15.84388470  1803"
      },
      "geometry": {
        "type": "Point",
        "coordinates": [
          -74.2679771285436,
          -3.0316706276887437
        ]
      }
    },
    {
      "type": "Feature",
      "properties": {
        "norad_id": 66866,
        "name": "STARLINK-36126",
        "group": "last-30-days",
        "lat": -4.6535617949445465,
        "lon": -72.52075649213202,
        "alt_km": 324.55492492911526,
        "timestamp": "2025-12-15T22:44:27.662134+00:00",
        "meta_object_name": "STARLINK-36126",
        "meta_object_id": "2025-281U",
        "meta_epoch": "2025-12-15T06:00:04.999968",
        "meta_mean_motion": 15.84367255,
        "meta_eccentricity": 0.00013778,
        "meta_inclination": 43.0004,
        "meta_ra_of_asc_node": 106.7521,
        "meta_arg_of_pericenter": 273.2746,
        "meta_mean_anomaly": 253.0776,
        "meta_ephemeris_type": 0,
        "meta_classification_type": "U",
        "meta_norad_cat_id": 66866,
        "meta_element_set_no": 999,
        "meta_rev_at_epoch": 183,
        "meta_bstar": -0.0068832233,
        "meta_mean_motion_dot": -0.01439137,
        "meta_mean_motion_ddot": 0,
        "tle_line1": "1 66866U 25281U   25349.25005787 -.01439137  00000+0 -68832-2 0  9995",
        "tle_line2": "2 66866  43.0004 106.7521 0001377 273.2746 253.0776 15.84367255  1834"
      },
      "geometry": {
        "type": "Point",
        "coordinates": [
          -72.52075649213202,
          -4.6535617949445465
        ]
      }
    },
    {
      "type": "Feature",
      "properties": {
        "norad_id": 66867,
        "name": "STARLINK-36101",
        "group": "last-30-days",
        "lat": -6.619629861534676,
        "lon": -70.38536447612063,
        "alt_km": 324.94000678823704,
        "timestamp": "2025-12-15T22:44:27.662144+00:00",
        "meta_object_name": "STARLINK-36101",
        "meta_object_id": "2025-281V",
        "meta_epoch": "2025-12-15T06:00:04.999968",
        "meta_mean_motion": 15.84309858,
        "meta_eccentricity": 0.00012514,
        "meta_inclination": 43.0008,
        "meta_ra_of_asc_node": 106.7443,
        "meta_arg_of_pericenter": 272.927,
        "meta_mean_anomaly": 256.4972,
        "meta_ephemeris_type": 0,
        "meta_classification_type": "U",
        "meta_norad_cat_id": 66867,
        "meta_element_set_no": 999,
        "meta_rev_at_epoch": 164,
        "meta_bstar": -0.006975251,
        "meta_mean_motion_dot": -0.0145252,
        "meta_mean_motion_ddot": 0,
        "tle_line1": "1 66867U 25281V   25349.25005787 -.01452520  00000+0 -69753-2 0  9990",
        "tle_line2": "2 66867  43.0008 106.7443 0001251 272.9270 256.4972 15.84309858  1640"
      },
      "geometry": {
        "type": "Point",
        "coordinates": [
          -70.38536447612063,
          -6.619629861534676
        ]
      }
    }
  ]
}